[{"OBJECT_NAME":"LUSAT (LO-19)","OBJECT_ID":"1990-005G","EPOCH":"2026-03-09T14:54:14.260896","MEAN_MOTION":14.34087969,"ECCENTRICITY":0.001234,"INCLINATION":98.8938,"RA_OF_ASC_NODE":87.6461,"ARG_OF_PERICENTER":134.6824,"MEAN_ANOMALY":225.5367,"EPHEMERIS_TYPE":0,"CLASSIFICATION_TYPE":"U","NORAD_CAT_ID":20442,"ELEMENT_SET_NO":999,"REV_AT_EPOCH":88812,"BSTAR":8.4338e-5,"MEAN_MOTION_DOT":1.89e-6,"MEAN_MOTION_DDOT":0},{"OBJECT_NAME":"THOR ABLESTAR DEB","OBJECT_ID":"1961-015KN","EPOCH":"2026-03-09T10:04:15.962880","MEAN_MOTION":14.34998035,"ECCENTRICITY":0.00622874,"INCLINATION":66.8929,"RA_OF_ASC_NODE":220.0569,"ARG_OF_PERICENTER":7.7425,"MEAN_ANOMALY":352.4623,"EPHEMERIS_TYPE":0,"CLASSIFICATION_TYPE":"U","NORAD_CAT_ID":6748,"ELEMENT_SET_NO":999,"REV_AT_EPOCH":27634,"BSTAR":0.0019906376,"MEAN_MOTION_DOT":5.724e-5,"MEAN_MOTION_DDOT":0}]
